start=new Date('2023-06-03T00:00:00.000Z').valueOf();
sats=[{"CLASSIFICATION_TYPE":"U","BSTAR":"-0.00002748200000","PERIAPSIS":"558.124","TIME_SYSTEM":"UTC","EPHEMERIS_TYPE":"0","MEAN_MOTION_DOT":"-0.00000575","OBJECT_NAME":"STARLINK-5734","REF_FRAME":"TEME","MEAN_MOTION":"15.02533641","EPOCH":"2023-06-02T20:32:27.550752","PERIOD":"95.838","LAUNCH_DATE":"2023-02-12","INCLINATION":"43.0036","FILE":"3923570","GP_ID":"233075239","TLE_LINE1":"1 55612U 23020AV  23153.85587443 -.00000575  00000-0 -27482-4 0  9990","ECCENTRICITY":"0.00013910","OBJECT_TYPE":"PAYLOAD","ELEMENT_SET_NO":"999","MEAN_MOTION_DDOT":"0.0000000000000","MEAN_ANOMALY":"92.7694","MEAN_ELEMENT_THEORY":"SGP4","SITE":"AFETR","OBJECT_ID":"2023-020AV","COUNTRY_CODE":"US","NORAD_CAT_ID":"55612","RA_OF_ASC_NODE":"84.2506","REV_AT_EPOCH":"1701","CENTER_NAME":"EARTH","DECAY_DATE":null,"SEMIMAJOR_AXIS":"6937.224","RCS_SIZE":"LARGE","ARG_OF_PERICENTER":"267.2989","APOAPSIS":"560.054","TLE_LINE2":"2 55612  43.0036  84.2506 0001391 267.2989  92.7694 15.02533641 17015"},{"OBJECT_TYPE":"PAYLOAD","ELEMENT_SET_NO":"999","MEAN_MOTION_DDOT":"0.0000000000000","MEAN_ANOMALY":"104.1737","MEAN_ELEMENT_THEORY":"SGP4","SITE":"AFETR","OBJECT_ID":"2023-020AW","COUNTRY_CODE":"US","NORAD_CAT_ID":"55613","RA_OF_ASC_NODE":"84.3213","REV_AT_EPOCH":"1701","DECAY_DATE":null,"CENTER_NAME":"EARTH","SEMIMAJOR_AXIS":"6937.188","RCS_SIZE":"LARGE","ARG_OF_PERICENTER":"255.8964","APOAPSIS":"559.932","TLE_LINE2":"2 55613  43.0042  84.3213 0001267 255.8964 104.1737 15.02545396 17013","CLASSIFICATION_TYPE":"U","BSTAR":"0.00007752200000","PERIAPSIS":"558.174","TIME_SYSTEM":"UTC","EPHEMERIS_TYPE":"0","MEAN_MOTION_DOT":"0.00000844","OBJECT_NAME":"STARLINK-5715","REF_FRAME":"TEME","MEAN_MOTION":"15.02545396","EPOCH":"2023-06-02T20:45:13.363200","PERIOD":"95.837","LAUNCH_DATE":"2023-02-12","INCLINATION":"43.0042","FILE":"3923570","GP_ID":"233075487","TLE_LINE1":"1 55613U 23020AW  23153.86473800  .00000844  00000-0  77522-4 0  9990","ECCENTRICITY":"0.00012670"},{"PERIAPSIS":"558.109","BSTAR":"-0.00000167050000","CLASSIFICATION_TYPE":"U","MEAN_MOTION":"15.02538739","EPHEMERIS_TYPE":"0","OBJECT_NAME":"STARLINK-5714","REF_FRAME":"TEME","MEAN_MOTION_DOT":"-0.00000226","TIME_SYSTEM":"UTC","INCLINATION":"43.0042","LAUNCH_DATE":"2023-02-12","EPOCH":"2023-06-02T06:17:39.215616","PERIOD":"95.838","TLE_LINE1":"1 55614U 23020AX  23153.26225944 -.00000226  00000-0 -16705-5 0  9992","ECCENTRICITY":"0.00013900","GP_ID":"233042402","FILE":"3923342","MEAN_ANOMALY":"93.6817","MEAN_MOTION_DDOT":"0.0000000000000","OBJECT_TYPE":"PAYLOAD","ELEMENT_SET_NO":"999","NORAD_CAT_ID":"55614","RA_OF_ASC_NODE":"74.4941","COUNTRY_CODE":"US","SITE":"AFETR","OBJECT_ID":"2023-020AX","MEAN_ELEMENT_THEORY":"SGP4","RCS_SIZE":"LARGE","DECAY_DATE":null,"CENTER_NAME":"EARTH","SEMIMAJOR_AXIS":"6937.208","REV_AT_EPOCH":"1707","APOAPSIS":"560.037","TLE_LINE2":"2 55614  43.0042  74.4941 0001390 266.3866  93.6817 15.02538739 17077","ARG_OF_PERICENTER":"266.3866"},{"BSTAR":"0.00004544300000","CLASSIFICATION_TYPE":"U","PERIAPSIS":"558.142","REF_FRAME":"TEME","MEAN_MOTION_DOT":"0.00000410","OBJECT_NAME":"STARLINK-5712","EPHEMERIS_TYPE":"0","TIME_SYSTEM":"UTC","MEAN_MOTION":"15.02541837","PERIOD":"95.838","EPOCH":"2023-06-02T07:43:25.340448","INCLINATION":"43.0045","LAUNCH_DATE":"2023-02-12","ECCENTRICITY":"0.00013280","TLE_LINE1":"1 55615U 23020AY  23153.32182107  .00000410  00000-0  45443-4 0  9996","FILE":"3923342","GP_ID":"233042651","ELEMENT_SET_NO":"999","OBJECT_TYPE":"PAYLOAD","MEAN_ANOMALY":"91.6453","MEAN_MOTION_DDOT":"0.0000000000000","OBJECT_ID":"2023-020AY","SITE":"AFETR","MEAN_ELEMENT_THEORY":"SGP4","RA_OF_ASC_NODE":"87.1234","NORAD_CAT_ID":"55615","COUNTRY_CODE":"US","SEMIMAJOR_AXIS":"6937.199","DECAY_DATE":null,"CENTER_NAME":"EARTH","REV_AT_EPOCH":"1693","RCS_SIZE":"LARGE","ARG_OF_PERICENTER":"268.4237","TLE_LINE2":"2 55615  43.0045  87.1234 0001328 268.4237  91.6453 15.02541837 16934","APOAPSIS":"559.985"},{"REV_AT_EPOCH":"1701","DECAY_DATE":null,"CENTER_NAME":"EARTH","SEMIMAJOR_AXIS":"6937.229","RCS_SIZE":"LARGE","ARG_OF_PERICENTER":"265.2867","APOAPSIS":"560.143","TLE_LINE2":"2 55616  43.0044  84.1670 0001512 265.2867  94.7802 15.02531883 17016","OBJECT_TYPE":"PAYLOAD","ELEMENT_SET_NO":"999","MEAN_MOTION_DDOT":"0.0000000000000","MEAN_ANOMALY":"94.7802","MEAN_ELEMENT_THEORY":"SGP4","SITE":"AFETR","OBJECT_ID":"2023-020AZ","COUNTRY_CODE":"US","NORAD_CAT_ID":"55616","RA_OF_ASC_NODE":"84.1670","EPOCH":"2023-06-02T20:16:28.637760","PERIOD":"95.838","LAUNCH_DATE":"2023-02-12","INCLINATION":"43.0044","FILE":"3923570","GP_ID":"233074739","TLE_LINE1":"1 55616U 23020AZ  23153.84477590 -.00001622  00000-0 -10505-3 0  9995","ECCENTRICITY":"0.00015120","CLASSIFICATION_TYPE":"U","BSTAR":"-0.00010505000000","PERIAPSIS":"558.045","TIME_SYSTEM":"UTC","EPHEMERIS_TYPE":"0","MEAN_MOTION_DOT":"-0.00001622","REF_FRAME":"TEME","OBJECT_NAME":"STARLINK-5710","MEAN_MOTION":"15.02531883"},{"MEAN_MOTION_DDOT":"0.0000000000000","MEAN_ANOMALY":"92.2469","ELEMENT_SET_NO":"999","OBJECT_TYPE":"PAYLOAD","COUNTRY_CODE":"US","RA_OF_ASC_NODE":"87.0992","NORAD_CAT_ID":"55617","MEAN_ELEMENT_THEORY":"SGP4","OBJECT_ID":"2023-020BA","SITE":"AFETR","RCS_SIZE":"LARGE","REV_AT_EPOCH":"1693","SEMIMAJOR_AXIS":"6937.198","CENTER_NAME":"EARTH","DECAY_DATE":null,"TLE_LINE2":"2 55617  43.0043  87.0992 0001280 267.8227  92.2469 15.02542175 16933","APOAPSIS":"559.950","ARG_OF_PERICENTER":"267.8227","PERIAPSIS":"558.175","CLASSIFICATION_TYPE":"U","BSTAR":"0.00006979700000","MEAN_MOTION":"15.02542175","TIME_SYSTEM":"UTC","MEAN_MOTION_DOT":"0.00000739","OBJECT_NAME":"STARLINK-5721","REF_FRAME":"TEME","EPHEMERIS_TYPE":"0","LAUNCH_DATE":"2023-02-12","INCLINATION":"43.0043","PERIOD":"95.838","EPOCH":"2023-06-02T07:38:37.725216","GP_ID":"233041650","FILE":"3923342","ECCENTRICITY":"0.00012800","TLE_LINE1":"1 55617U 23020BA  23153.31849219  .00000739  00000-0  69797-4 0  9993"},{"EPOCH":"2023-06-02T20:13:16.688064","PERIOD":"95.838","INCLINATION":"43.0043","LAUNCH_DATE":"2023-02-12","TLE_LINE1":"1 55618U 23020BB  23153.84255426 -.00001174  00000-0 -71845-4 0  9996","ECCENTRICITY":"0.00013710","GP_ID":"233073738","FILE":"3923570","BSTAR":"-0.00007184500000","CLASSIFICATION_TYPE":"U","PERIAPSIS":"558.133","EPHEMERIS_TYPE":"0","REF_FRAME":"TEME","MEAN_MOTION_DOT":"-0.00001174","OBJECT_NAME":"STARLINK-5717","TIME_SYSTEM":"UTC","MEAN_MOTION":"15.02535257","DECAY_DATE":null,"CENTER_NAME":"EARTH","SEMIMAJOR_AXIS":"6937.219","REV_AT_EPOCH":"1701","RCS_SIZE":"LARGE","ARG_OF_PERICENTER":"270.9589","APOAPSIS":"560.035","TLE_LINE2":"2 55618  43.0043  84.1511 0001371 270.9589  89.1097 15.02535257 17011","OBJECT_TYPE":"PAYLOAD","ELEMENT_SET_NO":"999","MEAN_ANOMALY":"89.1097","MEAN_MOTION_DDOT":"0.0000000000000","SITE":"AFETR","OBJECT_ID":"2023-020BB","MEAN_ELEMENT_THEORY":"SGP4","NORAD_CAT_ID":"55618","RA_OF_ASC_NODE":"84.1511","COUNTRY_CODE":"US"},{"MEAN_MOTION_DDOT":"0.0000000000000","MEAN_ANOMALY":"84.4758","OBJECT_TYPE":"PAYLOAD","ELEMENT_SET_NO":"999","COUNTRY_CODE":"US","NORAD_CAT_ID":"55619","RA_OF_ASC_NODE":"84.1346","MEAN_ELEMENT_THEORY":"SGP4","SITE":"AFETR","OBJECT_ID":"2023-020BC","RCS_SIZE":"LARGE","REV_AT_EPOCH":"1701","DECAY_DATE":null,"CENTER_NAME":"EARTH","SEMIMAJOR_AXIS":"6937.227","APOAPSIS":"560.006","TLE_LINE2":"2 55619  43.0043  84.1346 0001318 275.5934  84.4758 15.02532585 17017","ARG_OF_PERICENTER":"275.5934","PERIAPSIS":"558.178","CLASSIFICATION_TYPE":"U","BSTAR":"-0.00005812100000","MEAN_MOTION":"15.02532585","TIME_SYSTEM":"UTC","EPHEMERIS_TYPE":"0","REF_FRAME":"TEME","OBJECT_NAME":"STARLINK-5720","MEAN_MOTION_DOT":"-0.00000989","LAUNCH_DATE":"2023-02-12","INCLINATION":"43.0043","EPOCH":"2023-06-02T20:10:05.004480","PERIOD":"95.838","GP_ID":"233073988","FILE":"3923570","TLE_LINE1":"1 55619U 23020BC  23153.84033570 -.00000989  00000-0 -58121-4 0  9996","ECCENTRICITY":"0.00013180"},{"RCS_SIZE":"LARGE","REV_AT_EPOCH":"1693","SEMIMAJOR_AXIS":"6937.201","CENTER_NAME":"EARTH","DECAY_DATE":null,"TLE_LINE2":"2 55620  43.0043  86.9803 0001398 271.8173  88.2509 15.02540968 16939","APOAPSIS":"560.036","ARG_OF_PERICENTER":"271.8173","MEAN_MOTION_DDOT":"0.0000000000000","MEAN_ANOMALY":"88.2509","ELEMENT_SET_NO":"999","OBJECT_TYPE":"PAYLOAD","COUNTRY_CODE":"US","RA_OF_ASC_NODE":"86.9803","NORAD_CAT_ID":"55620","MEAN_ELEMENT_THEORY":"SGP4","OBJECT_ID":"2023-020BD","SITE":"AFETR","LAUNCH_DATE":"2023-02-12","INCLINATION":"43.0043","PERIOD":"95.838","EPOCH":"2023-06-02T07:16:15.324096","GP_ID":"233041401","FILE":"3923342","ECCENTRICITY":"0.00013980","TLE_LINE1":"1 55620U 23020BD  23153.30295514  .00000313  00000-0  38252-4 0  9999","PERIAPSIS":"558.096","CLASSIFICATION_TYPE":"U","BSTAR":"0.00003825200000","MEAN_MOTION":"15.02540968","TIME_SYSTEM":"UTC","REF_FRAME":"TEME","MEAN_MOTION_DOT":"0.00000313","OBJECT_NAME":"STARLINK-5718","EPHEMERIS_TYPE":"0"},{"LAUNCH_DATE":"2023-02-12","INCLINATION":"43.0050","PERIOD":"95.838","EPOCH":"2023-06-02T20:21:16.441344","GP_ID":"233075488","FILE":"3923570","ECCENTRICITY":"0.00012800","TLE_LINE1":"1 55621U 23020BE  23153.84810696 -.00001781  00000-0 -11685-3 0  9995","PERIAPSIS":"558.212","CLASSIFICATION_TYPE":"U","BSTAR":"-0.00011685000000","MEAN_MOTION":"15.02530007","TIME_SYSTEM":"UTC","OBJECT_NAME":"STARLINK-5709","REF_FRAME":"TEME","MEAN_MOTION_DOT":"-0.00001781","EPHEMERIS_TYPE":"0","RCS_SIZE":"LARGE","REV_AT_EPOCH":"1701","SEMIMAJOR_AXIS":"6937.235","CENTER_NAME":"EARTH","DECAY_DATE":null,"TLE_LINE2":"2 55621  43.0050  84.1918 0001280 262.1121  97.9576 15.02530007 17015","APOAPSIS":"559.988","ARG_OF_PERICENTER":"262.1121","MEAN_MOTION_DDOT":"0.0000000000000","MEAN_ANOMALY":"97.9576","ELEMENT_SET_NO":"999","OBJECT_TYPE":"PAYLOAD","COUNTRY_CODE":"US","RA_OF_ASC_NODE":"84.1918","NORAD_CAT_ID":"55621","MEAN_ELEMENT_THEORY":"SGP4","OBJECT_ID":"2023-020BE","SITE":"AFETR"}];
